{
  "type": "FeatureCollection",
  "features": [
    {
      "type": "Feature",
      "properties": {
        "norad_id": 66969,
        "name": "STARLINK-36149",
        "group": "last-30-days",
        "lat": -12.336987281501877,
        "lon": -90.28925773156355,
        "alt_km": 404.0780195732523,
        "timestamp": "2025-12-27T17:24:56.107816+00:00",
        "meta_object_name": "STARLINK-36149",
        "meta_object_id": "2025-288L",
        "meta_epoch": "2025-12-27T12:00:02.000160",
        "meta_mean_motion": 15.55697418,
        "meta_eccentricity": 0.0001326,
        "meta_inclination": 42.9999,
        "meta_ra_of_asc_node": 77.4655,
        "meta_arg_of_pericenter": 271.633,
        "meta_mean_anomaly": 101.8347,
        "meta_ephemeris_type": 0,
        "meta_classification_type": "U",
        "meta_norad_cat_id": 66969,
        "meta_element_set_no": 999,
        "meta_rev_at_epoch": 420,
        "meta_bstar": -0.0326,
        "meta_mean_motion_dot": -0.02054274,
        "meta_mean_motion_ddot": 0,
        "tle_line1": "1 66969U 25288L   25361.50002315 -.02054274  00000+0 -32600-1 0  9991",
        "tle_line2": "2 66969  42.9999  77.4655 0001326 271.6330 101.8347 15.55697418  4209"
      },
      "geometry": {
        "type": "Point",
        "coordinates": [
          -90.28925773156355,
          -12.336987281501877
        ]
      }
    },
    {
      "type": "Feature",
      "properties": {
        "norad_id": 66970,
        "name": "STARLINK-35703",
        "group": "last-30-days",
        "lat": -17.341365600927244,
        "lon": -84.30481593634153,
        "alt_km": 404.6357804554209,
        "timestamp": "2025-12-27T17:24:56.107828+00:00",
        "meta_object_name": "STARLINK-35703",
        "meta_object_id": "2025-288M",
        "meta_epoch": "2025-12-27T12:00:02.000160",
        "meta_mean_motion": 15.55698696,
        "meta_eccentricity": 0.00014,
        "meta_inclination": 42.9998,
        "meta_ra_of_asc_node": 77.4459,
        "meta_arg_of_pericenter": 282.825,
        "meta_mean_anomaly": 98.3092,
        "meta_ephemeris_type": 0,
        "meta_classification_type": "U",
        "meta_norad_cat_id": 66970,
        "meta_element_set_no": 999,
        "meta_rev_at_epoch": 420,
        "meta_bstar": -0.032689,
        "meta_mean_motion_dot": -0.02059448,
        "meta_mean_motion_ddot": 0,
        "tle_line1": "1 66970U 25288M   25361.50002315 -.02059448  00000+0 -32689-1 0  9998",
        "tle_line2": "2 66970  42.9998  77.4459 0001400 282.8250  98.3092 15.55698696  4206"
      },
      "geometry": {
        "type": "Point",
        "coordinates": [
          -84.30481593634153,
          -17.341365600927244
        ]
      }
    },
    {
      "type": "Feature",
      "properties": {
        "norad_id": 66971,
        "name": "STARLINK-35678",
        "group": "last-30-days",
        "lat": -7.20143013580929,
        "lon": -96.05052066363288,
        "alt_km": 403.8326675285325,
        "timestamp": "2025-12-27T17:24:56.107845+00:00",
        "meta_object_name": "STARLINK-35678",
        "meta_object_id": "2025-288N",
        "meta_epoch": "2025-12-27T12:00:02.000160",
        "meta_mean_motion": 15.55703228,
        "meta_eccentricity": 0.0001398,
        "meta_inclination": 43,
        "meta_ra_of_asc_node": 77.4856,
        "meta_arg_of_pericenter": 281.8772,
        "meta_mean_anomaly": 83.9187,
        "meta_ephemeris_type": 0,
        "meta_classification_type": "U",
        "meta_norad_cat_id": 66971,
        "meta_element_set_no": 999,
        "meta_rev_at_epoch": 420,
        "meta_bstar": -0.032798,
        "meta_mean_motion_dot": -0.02065885,
        "meta_mean_motion_ddot": 0,
        "tle_line1": "1 66971U 25288N   25361.50002315 -.02065885  00000+0 -32798-1 0  9992",
        "tle_line2": "2 66971  43.0000  77.4856 0001398 281.8772  83.9187 15.55703228  4201"
      },
      "geometry": {
        "type": "Point",
        "coordinates": [
          -96.05052066363288,
          -7.20143013580929
        ]
      }
    },
    {
      "type": "Feature",
      "properties": {
        "norad_id": 66972,
        "name": "STARLINK-34846",
        "group": "last-30-days",
        "lat": -8.491697095408231,
        "lon": -94.6285488296608,
        "alt_km": 403.7856235829995,
        "timestamp": "2025-12-27T17:24:56.107855+00:00",
        "meta_object_name": "STARLINK-34846",
        "meta_object_id": "2025-288P",
        "meta_epoch": "2025-12-27T12:00:02.000160",
        "meta_mean_motion": 15.55697588,
        "meta_eccentricity": 0.0001556,
        "meta_inclination": 43.0002,
        "meta_ra_of_asc_node": 77.4809,
        "meta_arg_of_pericenter": 274.1973,
        "meta_mean_anomaly": 93.5166,
        "meta_ephemeris_type": 0,
        "meta_classification_type": "U",
        "meta_norad_cat_id": 66972,
        "meta_element_set_no": 999,
        "meta_rev_at_epoch": 420,
        "meta_bstar": -0.032612,
        "meta_mean_motion_dot": -0.02055151,
        "meta_mean_motion_ddot": 0,
        "tle_line1": "1 66972U 25288P   25361.50002315 -.02055151  00000+0 -32612-1 0  9993",
        "tle_line2": "2 66972  43.0002  77.4809 0001556 274.1973  93.5166 15.55697588  4201"
      },
      "geometry": {
        "type": "Point",
        "coordinates": [
          -94.6285488296608,
          -8.491697095408231
        ]
      }
    },
    {
      "type": "Feature",
      "properties": {
        "norad_id": 66973,
        "name": "STARLINK-35778",
        "group": "last-30-days",
        "lat": -9.780285326362124,
        "lon": -93.19263790623171,
        "alt_km": 404.0847723369361,
        "timestamp": "2025-12-27T17:24:56.107865+00:00",
        "meta_object_name": "STARLINK-35778",
        "meta_object_id": "2025-288Q",
        "meta_epoch": "2025-12-27T12:00:02.000160",
        "meta_mean_motion": 15.55698102,
        "meta_eccentricity": 0.0001423,
        "meta_inclination": 43.0002,
        "meta_ra_of_asc_node": 77.4765,
        "meta_arg_of_pericenter": 283.2734,
        "meta_mean_anomaly": 86.3589,
        "meta_ephemeris_type": 0,
        "meta_classification_type": "U",
        "meta_norad_cat_id": 66973,
        "meta_element_set_no": 999,
        "meta_rev_at_epoch": 420,
        "meta_bstar": -0.032674,
        "meta_mean_motion_dot": -0.02058564,
        "meta_mean_motion_ddot": 0,
        "tle_line1": "1 66973U 25288Q   25361.50002315 -.02058564  00000+0 -32674-1 0  9993",
        "tle_line2": "2 66973  43.0002  77.4765 0001423 283.2734  86.3589 15.55698102  4204"
      },
      "geometry": {
        "type": "Point",
        "coordinates": [
          -93.19263790623171,
          -9.780285326362124
        ]
      }
    },
    {
      "type": "Feature",
      "properties": {
        "norad_id": 66974,
        "name": "STARLINK-35780",
        "group": "last-30-days",
        "lat": -11.060476357828213,
        "lon": -91.74814861174087,
        "alt_km": 404.10046170298483,
        "timestamp": "2025-12-27T17:24:56.107875+00:00",
        "meta_object_name": "STARLINK-35780",
        "meta_object_id": "2025-288R",
        "meta_epoch": "2025-12-27T12:00:02.000160",
        "meta_mean_motion": 15.55693021,
        "meta_eccentricity": 0.000146,
        "meta_inclination": 43.0002,
        "meta_ra_of_asc_node": 77.4721,
        "meta_arg_of_pericenter": 279.0977,
        "meta_mean_anomaly": 92.4525,
        "meta_ephemeris_type": 0,
        "meta_classification_type": "U",
        "meta_norad_cat_id": 66974,
        "meta_element_set_no": 999,
        "meta_rev_at_epoch": 420,
        "meta_bstar": -0.032461,
        "meta_mean_motion_dot": -0.02046269,
        "meta_mean_motion_ddot": 0,
        "tle_line1": "1 66974U 25288R   25361.50002315 -.02046269  00000+0 -32461-1 0  9997",
        "tle_line2": "2 66974  43.0002  77.4721 0001460 279.0977  92.4525 15.55693021  4203"
      },
      "geometry": {
        "type": "Point",
        "coordinates": [
          -91.74814861174087,
          -11.060476357828213
        ]
      }
    },
    {
      "type": "Feature",
      "properties": {
        "norad_id": 66975,
        "name": "STARLINK-35777",
        "group": "last-30-days",
        "lat": -13.602434102842215,
        "lon": -88.81779826024295,
        "alt_km": 404.24202208642146,
        "timestamp": "2025-12-27T17:24:56.107887+00:00",
        "meta_object_name": "STARLINK-35777",
        "meta_object_id": "2025-288S",
        "meta_epoch": "2025-12-27T12:00:02.000160",
        "meta_mean_motion": 15.55698556,
        "meta_eccentricity": 0.0001429,
        "meta_inclination": 42.9997,
        "meta_ra_of_asc_node": 77.4609,
        "meta_arg_of_pericenter": 276.0105,
        "meta_mean_anomaly": 99.3752,
        "meta_ephemeris_type": 0,
        "meta_classification_type": "U",
        "meta_norad_cat_id": 66975,
        "meta_element_set_no": 999,
        "meta_rev_at_epoch": 420,
        "meta_bstar": -0.03268,
        "meta_mean_motion_dot": -0.02058907,
        "meta_mean_motion_ddot": 0,
        "tle_line1": "1 66975U 25288S   25361.50002315 -.02058907  00000+0 -32680-1 0  9993",
        "tle_line2": "2 66975  42.9997  77.4609 0001429 276.0105  99.3752 15.55698556  4201"
      },
      "geometry": {
        "type": "Point",
        "coordinates": [
          -88.81779826024295,
          -13.602434102842215
        ]
      }
    }
  ]
}